[{"OBJECT_NAME":"GNOMES-3","OBJECT_ID":"2022-033B","EPOCH":"2026-03-09T16:59:59.477856","MEAN_MOTION":14.84669331,"ECCENTRICITY":0.00095992,"INCLINATION":97.8285,"RA_OF_ASC_NODE":146.8032,"ARG_OF_PERICENTER":290.7124,"MEAN_ANOMALY":69.3062,"EPHEMERIS_TYPE":0,"CLASSIFICATION_TYPE":"U","NORAD_CAT_ID":52158,"ELEMENT_SET_NO":999,"REV_AT_EPOCH":21257,"BSTAR":0.00036144772,"MEAN_MOTION_DOT":3.007e-5,"MEAN_MOTION_DDOT":0},{"OBJECT_NAME":"FENGYUN 1C DEB","OBJECT_ID":"1999-025BLM","EPOCH":"2026-03-08T05:01:42.980736","MEAN_MOTION":14.80168873,"ECCENTRICITY":0.01365523,"INCLINATION":98.865,"RA_OF_ASC_NODE":239.8189,"ARG_OF_PERICENTER":197.7839,"MEAN_ANOMALY":161.8566,"EPHEMERIS_TYPE":0,"CLASSIFICATION_TYPE":"U","NORAD_CAT_ID":31231,"ELEMENT_SET_NO":999,"REV_AT_EPOCH":64283,"BSTAR":0.0066268112,"MEAN_MOTION_DOT":0.00059401,"MEAN_MOTION_DDOT":0}]
